GOES 1 (SMS-C) [-]      
1 08366U 75100A   22224.28235969 -.00000241  00000+0  00000+0 0  9998
2 08366   8.1450 295.0244 0002591 236.9198 169.7656  1.00275727170980
GOES 2 [-]              
1 10061U 77048A   22224.39085755  .00000038  00000+0  00000+0 0  9997
2 10061   9.7263 306.4947 0010269  28.5824  13.5514  0.99394237 32311
GOES 3 [-]              
1 10953U 78062A   22224.70559889 -.00000140  00000+0  00000+0 0  9998
2 10953  10.0563 311.0137 0003651 159.9002 203.8388  0.99358185114581
GOES 4 [-]              
1 11964U 80074A   22224.64211701 -.00000317  00000+0  00000+0 0  9994
2 11964  11.0180 314.8382 0032367  77.7854 301.0439  0.99233299113508
GOES 5 [-]              
1 12472U 81049A   22224.29064618 -.00000277  00000+0  00000+0 0  9991
2 12472  11.8630 326.2227 0002467 168.7962 215.4421  1.00312731108768
GOES 6 [-]              
1 14050U 83041A   22224.73826656 -.00000270  00000+0  00000+0 0  9999
2 14050  12.4237 331.5273 0005330 149.2120  29.0503  1.00292963201931
GOES 7 [-]              
1 17561U 87022A   22224.58525505 -.00000121  00000+0  00000+0 0  9999
2 17561  14.1944 348.0845 0005649  78.8040 276.2346  0.99910031112925
GOES 8 [-]              
1 23051U 94022A   22224.41617885 -.00000030  00000+0  00000+0 0  9992
2 23051  13.2230  23.7905 0006669  53.9727 119.7260  0.98902877110233
GOES 9 [-]              
1 23581U 95025A   22223.23174458 -.00000257  00000+0  00000+0 0  9998
2 23581  12.7155  24.1383 0008994 103.2708 253.1835  0.98802247 98862
GOES 10 [-]             
1 24786U 97019A   22224.48428234  .00000041  00000+0  00000+0 0  9993
2 24786  11.4814  30.3123 0026068 197.3712 336.4343  0.99120181 92145
GOES 11 [-]             
1 26352U 00022A   22224.52605132 -.00000093  00000+0  00000+0 0  9999
2 26352   8.7988  58.8726 0002230  90.4592 279.5238  0.99041011 38565
GOES 12 [-]             
1 26871U 01031A   22224.65589469  .00000002  00000+0  00000+0 0  9993
2 26871   9.6152  47.8089 0004965 343.2836  16.2720  0.99137522 76838
EWS-G1 (GOES 13) [+]    
1 29155U 06018A   22224.73938422  .00000019  00000+0  00000+0 0  9995
2 29155   0.7324  96.5876 0005418  95.2156  96.8533  1.00273863 29293
GOES 14 [B]             
1 35491U 09033A   22223.59354903 -.00000108  00000+0  00000+0 0  9994
2 35491   0.4440  94.5446 0014412 116.2944 218.3051  1.00271758 48011
GOES 15 [B]             
1 36411U 10008A   22224.64407010  .00000036  00000+0  00000+0 0  9995
2 36411   0.4414 276.2796 0004797 240.3464 268.2222  1.00270742 45588
GOES 16 [+]             
1 41866U 16071A   22224.52735932 -.00000266  00000+0  00000+0 0  9991
2 41866   0.0559 265.1559 0000638 262.7552 267.6803  1.00270915 21027
GOES 17 [+]             
1 43226U 18022A   22224.63248932  .00000080  00000+0  00000+0 0  9995
2 43226   0.0908 269.0147 0000499 212.1509 290.2548  1.00270721 16330
GOES 18 [+]             
1 51850U 22021A   22225.18233572  .00000078  00000+0  00000+0 0  9993
2 51850   0.0361  88.5513 0002772 117.2644  44.4205  1.00271626  1728
